NAVSTAR 69 (USA 248)    
1 39533U 14008A   25014.16050115  .00000017  00000+0  00000+0 0  9993
2 39533  53.6077 170.4756 0074324 221.0442 138.3537  2.00554188 79276
NAVSTAR 70 (USA 251)    
1 39741U 14026A   25014.44384560 -.00000102  00000+0  00000+0 0  9995
2 39741  56.6845 351.6783 0036153 316.1380  43.5674  2.00553338 78130
NAVSTAR 71 (USA 256)    
1 40105U 14045A   25013.02904926 -.00000041  00000+0  00000+0 0  9991
2 40105  55.0321 109.2225 0029587 118.3798 241.9218  2.00550645 75643
NAVSTAR 72 (USA 258)    
1 40294U 14068A   25014.40314851 -.00000055  00000+0  00000+0 0  9995
2 40294  56.5983  51.0161 0054605  64.2427 296.3855  2.00573333 74809
NAVSTAR 73 (USA 260)    
1 40534U 15013A   25014.53892693  .00000048  00000+0  00000+0 0  9993
2 40534  53.2771 225.6404 0096878  33.6928 326.9772  2.00552803 71420
NAVSTAR 74 (USA 262)    
1 40730U 15033A   25014.69979618 -.00000039  00000+0  00000+0 0  9994
2 40730  54.4100 288.4088 0102471  22.1019 338.3879  2.00556130 69613
NAVSTAR 75 (USA 265)    
1 41019U 15062A   25014.26030995 -.00000055  00000+0  00000+0 0  9994
2 41019  56.5766  50.8771 0102808 227.5561 131.6319  2.00566569 67429
NAVSTAR 76 (USA 266)    
1 41328U 16007A   25014.34555335 -.00000029  00000+0  00000+0 0  9997
2 41328  55.2211 110.0597 0085114 240.2017 118.9599  2.00551477 65435
